NORAD_CAT_ID,OBJECT_NAME,OBJECT_TYPE,EPOCH,MEAN_MOTION,ECCENTRICITY,INCLINATION,RA_OF_ASC_NODE,ARG_OF_PERICENTER,MEAN_ANOMALY,BSTAR,MEAN_MOTION_DOT,MEAN_MOTION_DDOT,TLE_LINE0,TLE_LINE1,TLE_LINE2,SEMIMAJOR_AXIS,PERIOD,APOGEE,PERIGEE,DECAYED
52501.0,STARLINK-3907,PAYLOAD,2022-09-17 15:36:54,15.08840322,0.0001625,53.2208,346.0548,45.4365,314.6759,0.00017444,2.489e-05,0.0,0 STARLINK-3907,1 52501U 22049BC  22260.65062852  .00002489  00000-0  17444-3 0  9992,2 52501  53.2208 346.0548 0001625  45.4365 314.6759 15.08840322 20815,6917.879,95.438,540.869,538.62,0.0
52501.0,STARLINK-3907,PAYLOAD,2022-09-18 12:16:54,15.0884762,0.0001671,53.2209,342.1896,46.807,313.3061,3.835e-05,3.22e-06,0.0,0 STARLINK-3907,1 52501U 22049BC  22261.51174474  .00000322  00000-0  38350-4 0  9996,2 52501  53.2209 342.1896 0001671  46.8070 313.3061 15.08847620 20942,6917.857,95.437,540.878,538.566,0.0
52501.0,STARLINK-3907,PAYLOAD,2022-09-18 15:27:40,15.08848662,0.0001681,53.2209,341.5949,46.2815,313.8316,4.2735e-05,3.92e-06,0.0,0 STARLINK-3907,1 52501U 22049BC  22261.64422317  .00000392  00000-0  42735-4 0  9991,2 52501  53.2209 341.5949 0001681  46.2815 313.8316 15.08848662 20963,6917.854,95.437,540.882,538.556,0.0
52501.0,STARLINK-3907,PAYLOAD,2022-09-19 12:07:41,15.08845544,0.0001714,53.2203,337.7291,42.6643,317.4482,4.8465e-05,4.83e-06,0.0,0 STARLINK-3907,1 52501U 22049BC  22262.50534252  .00000483  00000-0  48465-4 0  9996,2 52501  53.2203 337.7291 0001714  42.6643 317.4482 15.08845544 21095,6917.863,95.437,540.914,538.543,0.0
52501.0,STARLINK-3907,PAYLOAD,2022-09-19 15:18:27,15.08847377,0.0001727,53.2203,337.1344,42.3853,317.7272,6.0009e-05,6.67e-06,0.0,0 STARLINK-3907,1 52501U 22049BC  22262.63782037  .00000667  00000-0  60009-4 0  9998,2 52501  53.2203 337.1344 0001727  42.3853 317.7272 15.08847377 21111,6917.858,95.437,540.918,538.528,0.0
52501.0,STARLINK-3907,PAYLOAD,2022-09-20 11:58:29,15.08838411,0.0001809,53.2212,333.2699,48.6361,311.4786,-1.2269e-05,-4.83e-06,0.0,0 STARLINK-3907,1 52501U 22049BC  22263.49894697 -.00000483  00000-0 -12269-4 0  9992,2 52501  53.2212 333.2699 0001809  48.6361 311.4786 15.08838411 21407,6917.885,95.438,541.002,538.499,0.0
52501.0,STARLINK-3907,PAYLOAD,2022-09-20 15:09:15,15.08834022,0.0001818,53.22,332.6744,41.3167,318.7963,-6.6837e-05,-1.351e-05,0.0,0 STARLINK-3907,1 52501U 22049BC  22263.63143100 -.00001351  00000-0 -66837-4 0  9999,2 52501  53.2200 332.6744 0001818  41.3167 318.7963 15.08834022 21267,6917.899,95.438,541.021,538.506,0.0
52501.0,STARLINK-3907,PAYLOAD,2022-09-21 07:03:06,15.0884032,0.0001797,53.2195,329.7005,37.9952,322.1166,2.1842e-05,6e-07,0.0,0 STARLINK-3907,1 52501U 22049BC  22264.29382486  .00000060  00000-0  21842-4 0  9995,2 52501  53.2195 329.7005 0001797  37.9952 322.1166 15.08840320 21527,6917.879,95.438,540.988,538.501,0.0
52501.0,STARLINK-3907,PAYLOAD,2022-09-21 13:24:39,15.08840807,0.0001776,53.2198,328.5112,39.4397,320.6725,-9.0581e-06,-4.32e-06,0.0,0 STARLINK-3907,1 52501U 22049BC  22264.55878536 -.00000432  00000-0 -90581-5 0  9992,2 52501  53.2198 328.5112 0001776  39.4397 320.6725 15.08840807 21404,6917.878000000002,95.438,540.972,538.514,0.0
52501.0,STARLINK-3907,PAYLOAD,2022-09-22 13:15:26,15.08838959,0.0002028,53.2192,324.0517,38.4382,321.6754,0.00010516,1.386e-05,0.0,0 STARLINK-3907,1 52501U 22049BC  22265.55238655  .00001386  00000-0  10516-3 0  9990,2 52501  53.2192 324.0517 0002028  38.4382 321.6754 15.08838959 21714,6917.884,95.438,541.1519999999998,538.346,0.0
52501.0,STARLINK-3907,PAYLOAD,2022-09-22 21:12:21,15.08843956,0.0001995,53.2194,322.5648,39.3959,320.7178,0.00013766,1.904e-05,0.0,0 STARLINK-3907,1 52501U 22049BC  22265.88358238  .00001904  00000-0  13766-3 0  9992,2 52501  53.2194 322.5648 0001995  39.3959 320.7178 15.08843956 21607,6917.868,95.437,541.113,538.3530000000002,0.0
52501.0,STARLINK-3907,PAYLOAD,2022-09-23 09:55:27,15.08832527,0.0002003,53.2209,320.187,54.0909,306.0268,2.1634e-05,5.6e-07,0.0,0 STARLINK-3907,1 52501U 22049BC  22266.41351413  .00000056  00000-0  21634-4 0  9991,2 52501  53.2209 320.1870 0002003  54.0909 306.0268 15.08832527 21682,6917.903,95.438,541.154,538.383,0.0
52501.0,STARLINK-3907,PAYLOAD,2022-09-23 21:03:09,15.08839082,0.0001972,53.2204,318.1043,49.0867,311.0296,7.2369e-05,8.64e-06,0.0,0 STARLINK-3907,1 52501U 22049BC  22266.87718889  .00000864  00000-0  72369-4 0  9993,2 52501  53.2204 318.1043 0001972  49.0867 311.0296 15.08839082 21913,6917.8830000000025,95.438,541.112,538.384,0.0
52501.0,STARLINK-3907,PAYLOAD,2022-09-24 09:46:13,15.08876355,0.0001718,53.2207,315.7251,45.9604,314.153,-0.00041612,-6.911e-05,0.0,0 STARLINK-3907,1 52501U 22049BC  22267.40710240 -.00006911  00000-0 -41612-3 0  9993,2 52501  53.2207 315.7251 0001718  45.9604 314.1530 15.08876355 21999,6917.769,95.435,540.823,538.446,0.0
52501.0,STARLINK-3907,PAYLOAD,2022-09-24 14:32:24,15.08831647,0.0001896,53.22,314.8323,47.4576,312.6576,5.119100000000001e-05,5.26e-06,0.0,0 STARLINK-3907,1 52501U 22049BC  22267.60583444  .00000526  00000-0  51191-4 0  9997,2 52501  53.2200 314.8323 0001896  47.4576 312.6576 15.08831647 21868,6917.906,95.438,541.0830000000002,538.4590000000002,0.0
52501.0,STARLINK-3907,PAYLOAD,2022-09-24 20:53:55,15.08862379,0.0002112,53.22,313.6439,42.596,317.5196,-0.0003259999999999,-5.476e-05,0.0,0 STARLINK-3907,1 52501U 22049BC  22267.87078622 -.00005476  00000-0 -32600-3 0  9997,2 52501  53.2200 313.6439 0002112  42.5960 317.5196 15.08862379 22069,6917.812,95.436,541.138,538.216,0.0
52501.0,STARLINK-3907,PAYLOAD,2022-09-25 09:37:01,15.08838028,0.000205,53.2199,311.2659,37.9148,322.1988,5.0287e-05,5.12e-06,0.0,0 STARLINK-3907,1 52501U 22049BC  22268.40070975  .00000512  00000-0  50287-4 0  9996,2 52501  53.2199 311.2659 0002050  37.9148 322.1988 15.08838028 22145,6917.886,95.438,541.17,538.3330000000002,0.0
52501.0,STARLINK-3907,PAYLOAD,2022-09-25 12:47:47,15.08834817,0.0002106,53.22,310.6715,36.2116,323.9018,1.8786e-05,1.1e-07,0.0,0 STARLINK-3907,1 52501U 22049BC  22268.53319307  .00000011  00000-0  18786-4 0  9997,2 52501  53.2200 310.6715 0002106  36.2116 323.9018 15.08834817 22003,6917.896,95.438,541.2180000000002,538.304,0.0
52501.0,STARLINK-3907,PAYLOAD,2022-09-26 12:38:35,15.08827223,0.0001818,53.2191,306.2094,37.6228,322.4891,-8.2681e-06,-4.2e-06,0.0,0 STARLINK-3907,1 52501U 22049BC  22269.52680052 -.00000420  00000-0 -82681-5 0  9997,2 52501  53.2191 306.2094 0001818  37.6228 322.4891 15.08827223 22153,6917.919,95.438,541.0419999999998,538.5269999999998,0.0
52501.0,STARLINK-3907,PAYLOAD,2022-09-26 19:00:08,15.08810095,0.0001805,53.2177,305.0187,38.6172,321.4949,0.00024086,3.544e-05,0.0,0 STARLINK-3907,1 52501U 22049BC  22269.79176748  .00003544  00000-0  24086-3 0  9999,2 52501  53.2177 305.0187 0001805  38.6172 321.4949 15.08810095 22356,6917.972,95.439,541.085,538.5880000000002,0.0
52501.0,STARLINK-3907,PAYLOAD,2022-09-27 04:32:26,15.08836085,0.0001896999999999,53.2194,303.2364,36.4595,323.6526,-6.9687e-06,-3.99e-06,0.0,0 STARLINK-3907,1 52501U 22049BC  22270.18919813 -.00000399  00000-0 -69687-5 0  9997,2 52501  53.2194 303.2364 0001897  36.4595 323.6526 15.08836085 22417,6917.892,95.438,541.07,538.445,0.0
52501.0,STARLINK-3907,PAYLOAD,2022-09-27 10:53:58,15.08841862,0.0001931,53.2193,302.0471,37.1221,322.9905,4.8778e-05,4.88e-06,0.0,0 STARLINK-3907,1 52501U 22049BC  22270.45415357  .00000488  00000-0  48778-4 0  9995,2 52501  53.2193 302.0471 0001931  37.1221 322.9905 15.08841862 22293,6917.875,95.437,541.076,538.404,0.0
52501.0,STARLINK-3907,PAYLOAD,2022-09-27 18:50:54,15.08841515,0.0001797,53.2193,300.5604,41.81,318.303,0.00015086,2.114e-05,0.0,0 STARLINK-3907,1 52501U 22049BC  22270.78535093  .00002114  00000-0  15086-3 0  9994,2 52501  53.2193 300.5604 0001797  41.8100 318.3030 15.08841515 22509,6917.876,95.437,540.984,538.498,0.0
52501.0,STARLINK-3907,PAYLOAD,2022-09-28 10:44:45,15.08836073,0.0002005999999999,53.219,297.5871,39.3794,320.7344,0.00014049,1.948e-05,0.0,0 STARLINK-3907,1 52501U 22049BC  22271.44775454  .00001948  00000-0  14049-3 0  9997,2 52501  53.2190 297.5871 0002006  39.3794 320.7344 15.08836073 22443,6917.892,95.438,541.145,538.37,0.0
52501.0,STARLINK-3907,PAYLOAD,2022-09-29 01:03:13,15.08844468,0.0002065,53.219,294.911,40.3122,319.8023,0.0001549,2.178e-05,0.0,0 STARLINK-3907,1 52501U 22049BC  22272.04390974  .00002178  00000-0  15490-3 0  9991,2 52501  53.2190 294.9110 0002065  40.3122 319.8023 15.08844468 22699,6917.8669999999975,95.437,541.16,538.303,0.0
52501.0,STARLINK-3907,PAYLOAD,2022-09-29 10:35:32,15.08864153,0.0002828,53.2191,293.1247,20.6608,339.4498,-0.00036701,-6.129e-05,0.0,0 STARLINK-3907,1 52501U 22049BC  22272.44134816 -.00006129  00000-0 -36701-3 0  9996,2 52501  53.2191 293.1247 0002828  20.6608 339.4498 15.08864153 22595,6917.807,95.436,541.628,537.715,0.0
52501.0,STARLINK-3907,PAYLOAD,2022-09-30 10:26:19,15.08847103,0.0002399,53.2179,288.6683,32.8107,327.3034,-5.4611e-06,-3.75e-06,0.0,0 STARLINK-3907,1 52501U 22049BC  22273.43495103 -.00000375  00000-0 -54611-5 0  9994,2 52501  53.2179 288.6683 0002399  32.8107 327.3034 15.08847103 22741,6917.859,95.437,541.383,538.064,0.0
52501.0,STARLINK-3907,PAYLOAD,2022-09-30 18:23:15,15.08836958,0.0002026999999999,53.2178,287.1818,42.3267,317.7881,3.683e-05,2.98e-06,0.0,0 STARLINK-3907,1 52501U 22049BC  22273.76615624  .00000298  00000-0  36830-4 0  9996,2 52501  53.2178 287.1818 0002027  42.3267 317.7881 15.08836958 22799,6917.89,95.438,541.1569999999998,538.352,0.0
52501.0,STARLINK-3907,PAYLOAD,2022-10-01 07:06:20,15.08843779,0.0002288,53.2178,284.8004,39.345,320.7708,0.00019572,2.828e-05,0.0,0 STARLINK-3907,1 52501U 22049BC  22274.29606949  .00002828  00000-0  19572-3 0  9999,2 52501  53.2178 284.8004 0002288  39.3450 320.7708 15.08843779 22879,6917.869000000002,95.437,541.317,538.151,0.0
